{"type": "FeatureCollection", "features": [ {"type": "Feature", "properties": {"norad_id": 67131, "name": "ZIYUAN 3-04 (ZY 3-04)", "group": "last-30-days", "lat": 36.27681272340584, "lon": -100.02104294843575, "alt_km": 497.902885759715, "timestamp": "2025-12-26T09:30:52.345789+00:00", "meta": {"OBJECT_NAME": "ZIYUAN 3-04 (ZY 3-04)", "OBJECT_ID": "2025-300A", "EPOCH": "2025-12-21T18:22:34.187808", "MEAN_MOTION": 15.21179479, "ECCENTRICITY": 0.00027623, "INCLINATION": 97.4922, "RA_OF_ASC_NODE": 69.8294, "ARG_OF_PERICENTER": 167.6924, "MEAN_ANOMALY": 192.438, "EPHEMERIS_TYPE": 0, "CLASSIFICATION_TYPE": "U", "NORAD_CAT_ID": 67131, "ELEMENT_SET_NO": 999, "REV_AT_EPOCH": 86, "BSTAR": 6.5769783e-05, "MEAN_MOTION_DOT": 1.396e-05, "MEAN_MOTION_DDOT": 0}, "tle": {"line1": "1 67131U 25300A   25355.76567347  .00001396  00000+0  65770-4 0  9990", "line2": "2 67131  97.4922  69.8294 0002762 167.6924 192.4380 15.21179479   860"}}, "geometry": {"type": "Point", "coordinates": [-100.02104294843575, 36.27681272340584]}}, {"type": "Feature", "properties": {"norad_id": 67132, "name": "CZ-4B R/B", "group": "last-30-days", "lat": -63.57799950581643, "lon": -120.25916548663223, "alt_km": 392.27874060999056, "timestamp": "2025-12-26T09:30:52.345802+00:00", "meta": {"OBJECT_NAME": "CZ-4B R/B", "OBJECT_ID": "2025-300B", "EPOCH": "2025-12-18T16:13:04.609056", "MEAN_MOTION": 15.63831828, "ECCENTRICITY": 0.01741973, "INCLINATION": 97.5563, "RA_OF_ASC_NODE": 66.966, "ARG_OF_PERICENTER": 9.3582, "MEAN_ANOMALY": 351.0851, "EPHEMERIS_TYPE": 0, "CLASSIFICATION_TYPE": "U", "NORAD_CAT_ID": 67132, "ELEMENT_SET_NO": 999, "REV_AT_EPOCH": 40, "BSTAR": 0.00019566238, "MEAN_MOTION_DOT": 0.00040543, "MEAN_MOTION_DDOT": 2.652968e-06}, "tle": {"line1": "1 67132U 25300B   25352.67574779  .00040543  26530-5  19566-3 0  9995", "line2": "2 67132  97.5563  66.9660 0174197   9.3582 351.0851 15.63831828   407"}}, "geometry": {"type": "Point", "coordinates": [-120.25916548663223, -63.57799950581643]}}, {"type": "Feature", "properties": {"norad_id": 67133, "name": "KUIPER-00144", "group": "last-30-days", "lat": 40.723145249312886, "lon": -163.26876907194085, "alt_km": 449.8948028090708, "timestamp": "2025-12-26T09:30:52.345812+00:00", "meta": {"OBJECT_NAME": "KUIPER-00144", "OBJECT_ID": "2025-301A", "EPOCH": "2025-12-26T01:10:02.411328", "MEAN_MOTION": 15.35438844, "ECCENTRICITY": 0.0006133, "INCLINATION": 51.8703, "RA_OF_ASC_NODE": 60.9549, "ARG_OF_PERICENTER": 121.8983, "MEAN_ANOMALY": 238.2601, "EPHEMERIS_TYPE": 0, "CLASSIFICATION_TYPE": "U", "NORAD_CAT_ID": 67133, "ELEMENT_SET_NO": 999, "REV_AT_EPOCH": 241, "BSTAR": 0.00064174, "MEAN_MOTION_DOT": 0.00022127, "MEAN_MOTION_DDOT": 0}, "tle": {"line1": "1 67133U 25301A   25360.04863902  .00022127  00000+0  64174-3 0  9997", "line2": "2 67133  51.8703  60.9549 0006133 121.8983 238.2601 15.35438844  2418"}}, "geometry": {"type": "Point", "coordinates": [-163.26876907194085, 40.723145249312886]}}, {"type": "Feature", "properties": {"norad_id": 67134, "name": "KUIPER-00164", "group": "last-30-days", "lat": 22.75415862214308, "lon": -140.012229092066, "alt_km": 453.3901662368826, "timestamp": "2025-12-26T09:30:52.345822+00:00", "meta": {"OBJECT_NAME": "KUIPER-00164", "OBJECT_ID": "2025-301B", "EPOCH": "2025-12-26T02:37:02.229312", "MEAN_MOTION": 15.36144103, "ECCENTRICITY": 0.000311, "INCLINATION": 51.8728, "RA_OF_ASC_NODE": 60.6091, "ARG_OF_PERICENTER": 103.7605, "MEAN_ANOMALY": 256.3728, "EPHEMERIS_TYPE": 0, "CLASSIFICATION_TYPE": "U", "NORAD_CAT_ID": 67134, "ELEMENT_SET_NO": 999, "REV_AT_EPOCH": 260, "BSTAR": 0.00063151, "MEAN_MOTION_DOT": 0.00022265, "MEAN_MOTION_DDOT": 0}, "tle": {"line1": "1 67134U 25301B   25360.10905358  .00022265  00000+0  63151-3 0  9994", "line2": "2 67134  51.8728  60.6091 0003110 103.7605 256.3728 15.36144103  2602"}}, "geometry": {"type": "Point", "coordinates": [-140.012229092066, 22.75415862214308]}}, {"type": "Feature", "properties": {"norad_id": 67135, "name": "KUIPER-00175", "group": "last-30-days", "lat": 9.114015854602, "lon": -128.05626273990066, "alt_km": 456.30595837795863, "timestamp": "2025-12-26T09:30:52.345832+00:00", "meta": {"OBJECT_NAME": "KUIPER-00175", "OBJECT_ID": "2025-301C", "EPOCH": "2025-12-26T02:32:31.087968", "MEAN_MOTION": 15.36594269, "ECCENTRICITY": 0.0002336, "INCLINATION": 51.8755, "RA_OF_ASC_NODE": 60.5853, "ARG_OF_PERICENTER": 51.6047, "MEAN_ANOMALY": 308.5148, "EPHEMERIS_TYPE": 0, "CLASSIFICATION_TYPE": "U", "NORAD_CAT_ID": 67135, "ELEMENT_SET_NO": 999, "REV_AT_EPOCH": 249, "BSTAR": 0.0011605, "MEAN_MOTION_DOT": 0.0004195, "MEAN_MOTION_DDOT": 0}, "tle": {"line1": "1 67135U 25301C   25360.10591537  .00041950  00000+0  11605-2 0  9993", "line2": "2 67135  51.8755  60.5853 0002336  51.6047 308.5148 15.36594269  2493"}}, "geometry": {"type": "Point", "coordinates": [-128.05626273990066, 9.114015854602]}}, {"type": "Feature", "properties": {"norad_id": 67136, "name": "KUIPER-00179", "group": "last-30-days", "lat": 17.508407380659733, "lon": -135.13662480294994, "alt_km": 455.0298558245149, "timestamp": "2025-12-26T09:30:52.345842+00:00", "meta": {"OBJECT_NAME": "KUIPER-00179", "OBJECT_ID": "2025-301D", "EPOCH": "2025-12-26T04:08:56.063040", "MEAN_MOTION": 15.36277524, "ECCENTRICITY": 0.000276, "INCLINATION": 51.8747, "RA_OF_ASC_NODE": 60.2876, "ARG_OF_PERICENTER": 75.3192, "MEAN_ANOMALY": 284.81, "EPHEMERIS_TYPE": 0, "CLASSIFICATION_TYPE": "U", "NORAD_CAT_ID": 67136, "ELEMENT_SET_NO": 999, "REV_AT_EPOCH": 261, "BSTAR": 0.00075363, "MEAN_MOTION_DOT": 0.00026776, "MEAN_MOTION_DDOT": 0}, "tle": {"line1": "1 67136U 25301D   25360.17287110  .00026776  00000+0  75363-3 0  9991", "line2": "2 67136  51.8747  60.2876 0002760  75.3192 284.8100 15.36277524  2612"}}, "geometry": {"type": "Point", "coordinates": [-135.13662480294994, 17.508407380659733]}}, {"type": "Feature", "properties": {"norad_id": 67137, "name": "KUIPER-00181", "group": "last-30-days", "lat": 51.699432390900164, "lon": 143.5191097336765, "alt_km": 451.7684886199213, "timestamp": "2025-12-26T09:30:52.345854+00:00", "meta": {"OBJECT_NAME": "KUIPER-00181", "OBJECT_ID": "2025-301E", "EPOCH": "2025-12-26T02:53:14.750304", "MEAN_MOTION": 15.34442054, "ECCENTRICITY": 0.0010016, "INCLINATION": 51.8638, "RA_OF_ASC_NODE": 60.6852, "ARG_OF_PERICENTER": 143.1166, "MEAN_ANOMALY": 217.051, "EPHEMERIS_TYPE": 0, "CLASSIFICATION_TYPE": "U", "NORAD_CAT_ID": 67137, "ELEMENT_SET_NO": 999, "REV_AT_EPOCH": 258, "BSTAR": 0.0010892, "MEAN_MOTION_DOT": 0.00036737, "MEAN_MOTION_DDOT": 0}, "tle": {"line1": "1 67137U 25301E   25360.12030961  .00036737  00000+0  10892-2 0  9990", "line2": "2 67137  51.8638  60.6852 0010016 143.1166 217.0510 15.34442054  2587"}}, "geometry": {"type": "Point", "coordinates": [143.5191097336765, 51.699432390900164]}}, {"type": "Feature", "properties": {"norad_id": 67138, "name": "KUIPER-00183", "group": "last-30-days", "lat": 49.137431990738705, "lon": 124.64866659605951, "alt_km": 454.7900656632528, "timestamp": "2025-12-26T09:30:52.345864+00:00", "meta": {"OBJECT_NAME": "KUIPER-00183", "OBJECT_ID": "2025-301F", "EPOCH": "2025-12-26T02:56:20.436864", "MEAN_MOTION": 15.34095427, "ECCENTRICITY": 0.0011299, "INCLINATION": 51.8613, "RA_OF_ASC_NODE": 60.698, "ARG_OF_PERICENTER": 147.9077, "MEAN_ANOMALY": 212.2598, "EPHEMERIS_TYPE": 0, "CLASSIFICATION_TYPE": "U", "NORAD_CAT_ID": 67138, "ELEMENT_SET_NO": 999, "REV_AT_EPOCH": 259, "BSTAR": 0.00081694, "MEAN_MOTION_DOT": 0.00027132, "MEAN_MOTION_DDOT": 0}, "tle": {"line1": "1 67138U 25301F   25360.12245876  .00027132  00000+0  81694-3 0  9992", "line2": "2 67138  51.8613  60.6980 0011299 147.9077 212.2598 15.34095427  2592"}}, "geometry": {"type": "Point", "coordinates": [124.64866659605951, 49.137431990738705]}}, {"type": "Feature", "properties": {"norad_id": 67139, "name": "KUIPER-00184", "group": "last-30-days", "lat": 51.83315196601731, "lon": 150.89809661203637, "alt_km": 451.8065512188841, "timestamp": "2025-12-26T09:30:52.345879+00:00", "meta": {"OBJECT_NAME": "KUIPER-00184", "OBJECT_ID": "2025-301G", "EPOCH": "2025-12-26T04:25:51.182688", "MEAN_MOTION": 15.34499152, "ECCENTRICITY": 0.0008468, "INCLINATION": 51.863, "RA_OF_ASC_NODE": 60.3671, "ARG_OF_PERICENTER": 143.1325, "MEAN_ANOMALY": 217.0244, "EPHEMERIS_TYPE": 0, "CLASSIFICATION_TYPE": "U", "NORAD_CAT_ID": 67139, "ELEMENT_SET_NO": 999, "REV_AT_EPOCH": 271, "BSTAR": 2.6351e-05, "MEAN_MOTION_DOT": 5.12e-06, "MEAN_MOTION_DDOT": 0}, "tle": {"line1": "1 67139U 25301G   25360.18462017  .00000512  00000+0  26351-4 0  9990", "line2": "2 67139  51.8630  60.3671 0008468 143.1325 217.0244 15.34499152  2712"}}, "geometry": {"type": "Point", "coordinates": [150.89809661203637, 51.83315196601731]}}, {"type": "Feature", "properties": {"norad_id": 67140, "name": "KUIPER-00186", "group": "last-30-days", "lat": 47.93112948866332, "lon": 178.80532516026946, "alt_km": 449.1923030472999, "timestamp": "2025-12-26T09:30:52.345889+00:00", "meta": {"OBJECT_NAME": "KUIPER-00186", "OBJECT_ID": "2025-301H", "EPOCH": "2025-12-26T01:13:43.052736", "MEAN_MOTION": 15.3502604, "ECCENTRICITY": 0.0007884, "INCLINATION": 51.8669, "RA_OF_ASC_NODE": 60.9723, "ARG_OF_PERICENTER": 129.275, "MEAN_ANOMALY": 230.8937, "EPHEMERIS_TYPE": 0, "CLASSIFICATION_TYPE": "U", "NORAD_CAT_ID": 67140, "ELEMENT_SET_NO": 999, "REV_AT_EPOCH": 241, "BSTAR": 0.00096401, "MEAN_MOTION_DOT": 0.00033051, "MEAN_MOTION_DDOT": 0}, "tle": {"line1": "1 67140U 25301H   25360.05119274  .00033051  00000+0  96401-3 0  9998", "line2": "2 67140  51.8669  60.9723 0007884 129.2750 230.8937 15.35026040  2410"}}, "geometry": {"type": "Point", "coordinates": [178.80532516026946, 47.93112948866332]}}]}